[{"OBJECT_NAME":"STARLINK-1047","OBJECT_ID":"2019-074AR","EPOCH":"2026-03-09T11:54:40.842720","MEAN_MOTION":15.32581056,"ECCENTRICITY":0.00022261,"INCLINATION":53.069,"RA_OF_ASC_NODE":146.9116,"ARG_OF_PERICENTER":203.7253,"MEAN_ANOMALY":156.3646,"EPHEMERIS_TYPE":0,"CLASSIFICATION_TYPE":"U","NORAD_CAT_ID":44752,"ELEMENT_SET_NO":999,"REV_AT_EPOCH":34931,"BSTAR":0.00039384285,"MEAN_MOTION_DOT":0.00012216,"MEAN_MOTION_DDOT":0},{"OBJECT_NAME":"STARLINK-36130","OBJECT_ID":"2025-286G","EPOCH":"2026-03-09T01:51:23.905728","MEAN_MOTION":15.30197984,"ECCENTRICITY":6.66e-5,"INCLINATION":53.1622,"RA_OF_ASC_NODE":1.2527,"ARG_OF_PERICENTER":111.3589,"MEAN_ANOMALY":248.7483,"EPHEMERIS_TYPE":0,"CLASSIFICATION_TYPE":"U","NORAD_CAT_ID":66931,"ELEMENT_SET_NO":999,"REV_AT_EPOCH":1532,"BSTAR":0.0012635331,"MEAN_MOTION_DOT":0.00037248,"MEAN_MOTION_DDOT":0}]
